COSMOS 2433 (720)       
1 32275U 07052A   22346.59422030 -.00000052  00000+0  00000+0 0  9991
2 32275  66.0686 358.7602 0005277 250.1935 234.3437  2.13104124117766
COSMOS 2432 (719)       
1 32276U 07052B   22346.68467363 -.00000052  00000+0  00000+0 0  9990
2 32276  66.0837 358.8617 0010757 313.3990 188.3296  2.13103343117767
COSMOS 2434 (721)       
1 32393U 07065A   22346.22229723  .00000027  00000+0  00000+0 0  9991
2 32393  64.3597 235.3632 0003160  69.3076  20.0781  2.13103140116462
COSMOS 2436 (723)       
1 32395U 07065C   22346.62094420  .00000025  00000+0  00000+0 0  9999
2 32395  64.3677 235.4087 0016494   2.2014 168.7334  2.13102803116403
COSMOS 2456 (730)       
1 36111U 09070A   22346.08182806  .00000033  00000+0  00000+0 0  9992
2 36111  64.4032 114.9533 0001437 320.3265 184.3841  2.13099028101123
COSMOS 2457 (733)       
1 36112U 09070B   22346.43452285  .00000036  00000+0  00000+0 0  9996
2 36112  64.3874 114.8126 0006705 153.5290  30.4567  2.13101283101135
COSMOS 2460 (732)       
1 36402U 10007C   22346.20520456 -.00000054  00000+0  00000+0 0  9992
2 36402  65.9366 357.5324 0002335 257.3601  96.0579  2.13106331 99473
COSMOS 2464 (736)       
1 37139U 10041C   22346.54361938  .00000026  00000+0  00000+0 0  9991
2 37139  63.9577 234.3397 0030542  11.6122 181.2319  2.13101301 95540
COSMOS 2476 (744)       
1 37867U 11064A   22346.61440550  .00000041  00000+0  00000+0 0  9998
2 37867  64.6889 116.3603 0021253 230.6295 229.6684  2.13101674 86482
COSMOS 2477 (745)       
1 37868U 11064B   22346.37597990  .00000038  00000+0  00000+0 0  9999
2 37868  64.6972 116.4352 0018350 230.6010 224.8130  2.13101524 86439
COSMOS 2475 (743)       
1 37869U 11064C   22346.07854426  .00000036  00000+0  00000+0 0  9995
2 37869  64.7044 116.4548 0022002 249.9719 295.4676  2.13101742 86437
COSMOS 2485 (747)       
1 39155U 13019A   22346.88929084  .00000044  00000+0  00000+0 0  9998
2 39155  64.8512 116.8175 0021699 226.4253 129.1568  2.13101746 74953
COSMOS 2492 (754)       
1 39620U 14012A   22346.58913880 -.00000052  00000+0  00000+0 0  9993
2 39620  65.8214 357.1761 0014029 312.9146 206.7211  2.13103143 67909
COSMOS 2500 (755)       
1 40001U 14032A   22346.10722772 -.00000055  00000+0  00000+0 0  9999
2 40001  65.7621 357.0404 0008191 216.6132 151.4681  2.13102307 66116
COSMOS 2501 (702K)      
1 40315U 14075A   22346.57772286  .00000025  00000+0  00000+0 0  9996
2 40315  63.6642 234.9387 0017690 208.3831 329.5113  2.13101317 62524
COSMOS 2514 (751)       
1 41330U 16008A   22346.32583411 -.00000054  00000+0  00000+0 0  9998
2 41330  65.5613 356.6791 0011820 223.1790 136.7659  2.13102751 53289
COSMOS 2516 (753)       
1 41554U 16032A   22346.44791880  .00000026  00000+0  00000+0 0  9995
2 41554  63.8898 235.2704 0014102 213.7838 146.2093  2.13106441 50895
COSMOS 2522 (752)       
1 42939U 17055A   22346.30743442  .00000026  00000+0  00000+0 0  9995
2 42939  64.1245 235.7216 0006907 245.5930 220.4991  2.13102099 40645
COSMOS 2527 (756)       
1 43508U 18053A   22346.62057185  .00000042  00000+0  00000+0 0  9992
2 43508  65.0140 116.8636 0007774 213.7755 164.5544  2.13102428 34946
COSMOS 2529 (757)       
1 43687U 18086A   22346.46854705  .00000025  00000+0  00000+0 0  9992
2 43687  64.3382 236.0797 0008913 270.5090 274.6738  2.13102099 31956
COSMOS 2534 (758)       
1 44299U 19030A   22346.29632688  .00000026  00000+0  00000+0 0  9998
2 44299  64.4111 235.9864 0011756 291.1732 256.2875  2.13101857 27595
COSMOS 2544 (759)       
1 44850U 19088A   22346.58079411  .00000042  00000+0  16595+1 0  9990
2 44850  64.9989 116.7134 0011215 249.4822 141.6476  2.13102187 23371
COSMOS 2545 (760)       
1 45358U 20018A   22346.88047392 -.00000053  00000+0  00000+0 0  9991
2 45358  64.8997 357.1234 0011598 249.3294 220.9620  2.13102614 21332
COSMOS 2547 (705K)      
1 46805U 20075A   22346.68567605  .00000025  00000+0  00000+0 0  9992
2 46805  64.6371 235.4511 0006326 246.1018 288.3489  2.13102928 16571
COSMOS 2557 (706K)      
1 52984U 22075A   22346.16097266 -.00000058  00000+0  10000-3 0  9995
2 52984  64.8065 359.3376 0013654 279.0005  90.1692  2.13101716  3368
COSMOS 2559 (707K)      
1 54031U 22130A   22346.55407801 -.00000056  00000+0  00000+0 0  9998
2 54031  64.7767 359.4609 0007681 230.6089 125.4672  2.13101337  1344
COSMOS 2564 (761)       
1 54377U 22161A   22343.65354395  .00000039  00000+0  00000+0 0  9992
2 54377  64.7808 235.5579 0027267 231.6187 268.4265  2.13730857   233
